[
    {
        "Altitude(m)": 716015.7916722675,
        "Argument of Periapsis(deg)": 0.0011390121186627068,
        "Eccentricity": 0.0,
        "Inclination(deg)": 45.0,
        "Latitude(deg)": -40.63387956778302,
        "Longitude(deg)": 38.54780955105108,
        "Mean Anomaly(deg)": -113.3921783352519,
        "RAAN(deg)": 259.99892480585413,
        "Satellite Name": "Constellation 1 1159",
        "Satellite Number": 1159,
        "Semi-Major Axis(m)": 7083131.272910544,
        "Time(s)": 19
    },
    {
        "Altitude(m)": 716025.0409618267,
        "Argument of Periapsis(deg)": 0.0011989601249081123,
        "Eccentricity": 0.0,
        "Inclination(deg)": 45.0,
        "Latitude(deg)": -40.656223228576245,
        "Longitude(deg)": 38.617740147989956,
        "Mean Anomaly(deg)": -113.33147719500207,
        "RAAN(deg)": 259.9988682166886,
        "Satellite Name": "Constellation 1 1159",
        "Satellite Number": 1159,
        "Semi-Major Axis(m)": 7083131.272910544,
        "Time(s)": 20
    },
    {
        "Altitude(m)": 716034.2706778378,
        "Argument of Periapsis(deg)": 0.001258908131153518,
        "Eccentricity": 0.0,
        "Inclination(deg)": 45.0,
        "Latitude(deg)": -40.67851928677815,
        "Longitude(deg)": 38.687719982673876,
        "Mean Anomaly(deg)": -113.27077605475209,
        "RAAN(deg)": 259.998811627523,
        "Satellite Name": "Constellation 1 1159",
        "Satellite Number": 1159,
        "Semi-Major Axis(m)": 7083131.272910544,
        "Time(s)": 21
    },
    {
        "Altitude(m)": 716043.4807865462,
        "Argument of Periapsis(deg)": 0.0013188561373989236,
        "Eccentricity": 0.0,
        "Inclination(deg)": 45.0,
        "Latitude(deg)": -40.700767674235856,
        "Longitude(deg)": 38.75774885352628,
        "Mean Anomaly(deg)": -113.21007491450226,
        "RAAN(deg)": 259.9987550383575,
        "Satellite Name": "Constellation 1 1159",
        "Satellite Number": 1159,
        "Semi-Major Axis(m)": 7083131.272910544,
        "Time(s)": 22
    },
    {
        "Altitude(m)": 716052.6712542678,
        "Argument of Periapsis(deg)": 0.0013788041436443293,
        "Eccentricity": 0.0,
        "Inclination(deg)": 45.0,
        "Latitude(deg)": -40.7229683228229,
        "Longitude(deg)": 38.82782706277701,
        "Mean Anomaly(deg)": -113.14937377425231,
        "RAAN(deg)": 259.9986984491919,
        "Satellite Name": "Constellation 1 1159",
        "Satellite Number": 1159,
        "Semi-Major Axis(m)": 7083131.272910544,
        "Time(s)": 23
    },
    {
        "Altitude(m)": 716061.8420473876,
        "Argument of Periapsis(deg)": 0.001438752149889735,
        "Eccentricity": 0.0,
        "Inclination(deg)": 45.0,
        "Latitude(deg)": -40.74512116444137,
        "Longitude(deg)": 38.897954407878736,
        "Mean Anomaly(deg)": -113.0886726340024,
        "RAAN(deg)": 259.99864186002634,
        "Satellite Name": "Constellation 1 1159",
        "Satellite Number": 1159,
        "Semi-Major Axis(m)": 7083131.272910544,
        "Time(s)": 24
    },
    {
        "Altitude(m)": 716070.9931323578,
        "Argument of Periapsis(deg)": 0.0014987001561351404,
        "Eccentricity": 0.0,
        "Inclination(deg)": 45.0,
        "Latitude(deg)": -40.767226131021516,
        "Longitude(deg)": 38.96813085389422,
        "Mean Anomaly(deg)": -113.02797149375256,
        "RAAN(deg)": 259.99858527086076,
        "Satellite Name": "Constellation 1 1159",
        "Satellite Number": 1159,
        "Semi-Major Axis(m)": 7083131.272910544,
        "Time(s)": 25
    },
    {
        "Altitude(m)": 716080.1244757054,
        "Argument of Periapsis(deg)": 0.001558648162380546,
        "Eccentricity": 0.0,
        "Inclination(deg)": 45.0,
        "Latitude(deg)": -40.78928315452282,
        "Longitude(deg)": 39.038356365397874,
        "Mean Anomaly(deg)": -112.96727035350271,
        "RAAN(deg)": 259.9985286816952,
        "Satellite Name": "Constellation 1 1159",
        "Satellite Number": 1159,
        "Semi-Major Axis(m)": 7083131.272910544,
        "Time(s)": 26
    },
    {
        "Altitude(m)": 716089.2360440238,
        "Argument of Periapsis(deg)": 0.0016185961686259519,
        "Eccentricity": 0.0,
        "Inclination(deg)": 45.0,
        "Latitude(deg)": -40.8112921669347,
        "Longitude(deg)": 39.108630906474836,
        "Mean Anomaly(deg)": -112.90656921325275,
        "RAAN(deg)": 259.99847209252965,
        "Satellite Name": "Constellation 1 1159",
        "Satellite Number": 1159,
        "Semi-Major Axis(m)": 7083131.272910544,
        "Time(s)": 27
    },
    {
        "Altitude(m)": 716098.3278039753,
        "Argument of Periapsis(deg)": 0.0016785441748713573,
        "Eccentricity": 0.0,
        "Inclination(deg)": 45.0,
        "Latitude(deg)": -40.83325310027707,
        "Longitude(deg)": 39.178954440719394,
        "Mean Anomaly(deg)": -112.84586807300278,
        "RAAN(deg)": 259.9984155033641,
        "Satellite Name": "Constellation 1 1159",
        "Satellite Number": 1159,
        "Semi-Major Axis(m)": 7083131.272910544,
        "Time(s)": 28
    },
    {
        "Altitude(m)": 716107.3997223014,
        "Argument of Periapsis(deg)": 0.001738492181116763,
        "Eccentricity": 0.0,
        "Inclination(deg)": 45.0,
        "Latitude(deg)": -40.85516588660121,
        "Longitude(deg)": 39.249326931234236,
        "Mean Anomaly(deg)": -112.78516693275294,
        "RAAN(deg)": 259.9983589141985,
        "Satellite Name": "Constellation 1 1159",
        "Satellite Number": 1159,
        "Semi-Major Axis(m)": 7083131.272910544,
        "Time(s)": 29
    },
    {
        "Altitude(m)": 716116.4517658058,
        "Argument of Periapsis(deg)": 0.0017984401873621684,
        "Eccentricity": 0.0,
        "Inclination(deg)": 45.0,
        "Latitude(deg)": -40.87703045799067,
        "Longitude(deg)": 39.31974817253254,
        "Mean Anomaly(deg)": -112.72446579250304,
        "RAAN(deg)": 259.9983023250329,
        "Satellite Name": "Constellation 1 1159",
        "Satellite Number": 1159,
        "Semi-Major Axis(m)": 7083131.272910544,
        "Time(s)": 30
    },
    {
        "Altitude(m)": 716125.4839013657,
        "Argument of Periapsis(deg)": 0.0018583881936075745,
        "Eccentricity": 0.0,
        "Inclination(deg)": 45.0,
        "Latitude(deg)": -40.89884674656109,
        "Longitude(deg)": 39.3902184629245,
        "Mean Anomaly(deg)": -112.66376465225311,
        "RAAN(deg)": 259.9982457358674,
        "Satellite Name": "Constellation 1 1159",
        "Satellite Number": 1159,
        "Semi-Major Axis(m)": 7083131.272910544,
        "Time(s)": 31
    },
    {
        "Altitude(m)": 716134.4960959265,
        "Argument of Periapsis(deg)": 0.0019183361998529795,
        "Eccentricity": 0.0,
        "Inclination(deg)": 45.0,
        "Latitude(deg)": -40.920614684462215,
        "Longitude(deg)": 39.46073759593397,
        "Mean Anomaly(deg)": -112.60306351200325,
        "RAAN(deg)": 259.9981891467018,
        "Satellite Name": "Constellation 1 1159",
        "Satellite Number": 1159,
        "Semi-Major Axis(m)": 7083131.272910544,
        "Time(s)": 32
    },
    {
        "Altitude(m)": 716143.4883165094,
        "Argument of Periapsis(deg)": 0.0019782842060983856,
        "Eccentricity": 0.0,
        "Inclination(deg)": 45.0,
        "Latitude(deg)": -40.94233420387774,
        "Longitude(deg)": 39.531305532686204,
        "Mean Anomaly(deg)": -112.5423623717534,
        "RAAN(deg)": 259.9981325575362,
        "Satellite Name": "Constellation 1 1159",
        "Satellite Number": 1159,
        "Semi-Major Axis(m)": 7083131.272910544,
        "Time(s)": 33
    },
    {
        "Altitude(m)": 716152.4605302048,
        "Argument of Periapsis(deg)": 0.0020382322123437906,
        "Eccentricity": 0.0,
        "Inclination(deg)": 45.0,
        "Latitude(deg)": -40.96400523702639,
        "Longitude(deg)": 39.601922233809304,
        "Mean Anomaly(deg)": -112.48166123150345,
        "RAAN(deg)": 259.99807596837064,
        "Satellite Name": "Constellation 1 1159",
        "Satellite Number": 1159,
        "Semi-Major Axis(m)": 7083131.272910544,
        "Time(s)": 34
    },
    {
        "Altitude(m)": 716161.4127041679,
        "Argument of Periapsis(deg)": 0.002098180218589197,
        "Eccentricity": 0.0,
        "Inclination(deg)": 45.0,
        "Latitude(deg)": -40.985627716162405,
        "Longitude(deg)": 39.67258765943253,
        "Mean Anomaly(deg)": -112.42096009125355,
        "RAAN(deg)": 259.99801937920506,
        "Satellite Name": "Constellation 1 1159",
        "Satellite Number": 1159,
        "Semi-Major Axis(m)": 7083131.272910544,
        "Time(s)": 35
    },
    {
        "Altitude(m)": 716170.3448056433,
        "Argument of Periapsis(deg)": 0.002158128224834602,
        "Eccentricity": 0.0,
        "Inclination(deg)": 45.0,
        "Latitude(deg)": -41.0072015735764,
        "Longitude(deg)": 39.74330176918644,
        "Mean Anomaly(deg)": -112.3602589510037,
        "RAAN(deg)": 259.99796279003954,
        "Satellite Name": "Constellation 1 1159",
        "Satellite Number": 1159,
        "Semi-Major Axis(m)": 7083131.272910544,
        "Time(s)": 36
    },
    {
        "Altitude(m)": 716179.2568019234,
        "Argument of Periapsis(deg)": 0.002218076231080008,
        "Eccentricity": 0.0,
        "Inclination(deg)": 45.0,
        "Latitude(deg)": -41.028726741596515,
        "Longitude(deg)": 39.814064354104076,
        "Mean Anomaly(deg)": -112.29955781075373,
        "RAAN(deg)": 259.99790620087396,
        "Satellite Name": "Constellation 1 1159",
        "Satellite Number": 1159,
        "Semi-Major Axis(m)": 7083131.272910544,
        "Time(s)": 37
    }
]